{
    "links": {
        "self": "http://www.neowsapp.com/rest/v1/neo/3991547?api_key=iIulBulltgU6a56xZRHN4H3l9WmuAYTsLGpBGhQ2"
    },
    "id": "3991547",
    "neo_reference_id": "3991547",
    "name": "(2020 CA2)",
    "designation": "2020 CA2",
    "nasa_jpl_url": "http://ssd.jpl.nasa.gov/sbdb.cgi?sstr=3991547",
    "absolute_magnitude_h": 24.237,
    "estimated_diameter": {
        "kilometers": {
            "estimated_diameter_min": 0.037770695,
            "estimated_diameter_max": 0.0844578417
        },
        "meters": {
            "estimated_diameter_min": 37.7706950406,
            "estimated_diameter_max": 84.4578416681
        },
        "miles": {
            "estimated_diameter_min": 0.0234696145,
            "estimated_diameter_max": 0.0524796535
        },
        "feet": {
            "estimated_diameter_min": 123.9196071169,
            "estimated_diameter_max": 277.0926652583
        }
    },
    "is_potentially_hazardous_asteroid": false,
    "close_approach_data": [
        {
            "close_approach_date": "2018-02-14",
            "close_approach_date_full": "2018-Feb-14 23:15",
            "epoch_date_close_approach": 1518650100000,
            "relative_velocity": {
                "kilometers_per_second": "19.2353793739",
                "kilometers_per_hour": "69247.3657459316",
                "miles_per_hour": "43027.6201214096"
            },
            "miss_distance": {
                "astronomical": "0.3059232058",
                "lunar": "119.0041270562",
                "kilometers": "45765459.971251646",
                "miles": "28437338.1692428748"
            },
            "orbiting_body": "Earth"
        },
        {
            "close_approach_date": "2019-09-20",
            "close_approach_date_full": "2019-Sep-20 15:49",
            "epoch_date_close_approach": 1568994540000,
            "relative_velocity": {
                "kilometers_per_second": "7.6407540423",
                "kilometers_per_hour": "27506.7145521655",
                "miles_per_hour": "17091.6027171497"
            },
            "miss_distance": {
                "astronomical": "0.4065706355",
                "lunar": "158.1559772095",
                "kilometers": "60822101.075346385",
                "miles": "37793101.118834713"
            },
            "orbiting_body": "Earth"
        },
        {
            "close_approach_date": "2020-02-01",
            "close_approach_date_full": "2020-Feb-01 17:08",
            "epoch_date_close_approach": 1580576880000,
            "relative_velocity": {
                "kilometers_per_second": "11.5310611389",
                "kilometers_per_hour": "41511.8200999619",
                "miles_per_hour": "25793.8306615569"
            },
            "miss_distance": {
                "astronomical": "0.1046880034",
                "lunar": "40.7236333226",
                "kilometers": "15661102.323192758",
                "miles": "9731357.7345777404"
            },
            "orbiting_body": "Earth"
        },
        {
            "close_approach_date": "2021-10-05",
            "close_approach_date_full": "2021-Oct-05 10:31",
            "epoch_date_close_approach": 1633429860000,
            "relative_velocity": {
                "kilometers_per_second": "9.5078752897",
                "kilometers_per_hour": "34228.3510428308",
                "miles_per_hour": "21268.1662354745"
            },
            "miss_distance": {
                "astronomical": "0.19852265",
                "lunar": "77.22531085",
                "kilometers": "29698565.5867555",
                "miles": "18453832.9400059"
            },
            "orbiting_body": "Earth"
        },
        {
            "close_approach_date": "2023-09-23",
            "close_approach_date_full": "2023-Sep-23 20:38",
            "epoch_date_close_approach": 1695501480000,
            "relative_velocity": {
                "kilometers_per_second": "17.2046493293",
                "kilometers_per_hour": "61936.7375855412",
                "miles_per_hour": "38485.0800847492"
            },
            "miss_distance": {
                "astronomical": "0.2941196394",
                "lunar": "114.4125397266",
                "kilometers": "43999671.579408078",
                "miles": "27340128.1408563564"
            },
            "orbiting_body": "Earth"
        }
    ],
    "orbital_data": {
        "orbit_id": "6",
        "orbit_determination_date": "2020-03-11 05:59:33",
        "first_observation_date": "2020-02-06",
        "last_observation_date": "2020-03-02",
        "data_arc_in_days": 25,
        "observations_used": 35,
        "orbit_uncertainty": "7",
        "minimum_orbit_intersection": ".103642",
        "jupiter_tisserand_invariant": "4.293",
        "epoch_osculation": "2459000.5",
        "eccentricity": ".4210803998980437",
        "semi_major_axis": "1.562549263482589",
        "inclination": "14.3169791028914",
        "ascending_node_longitude": "331.2917896534128",
        "orbital_period": "713.4261182348856",
        "perihelion_distance": ".9045903947549465",
        "perihelion_argument": "103.3831416332496",
        "aphelion_distance": "2.22050813221023",
        "perihelion_time": "2458834.452702618806",
        "mean_anomaly": "83.78867205636723",
        "mean_motion": ".5046072617732156",
        "equinox": "J2000",
        "orbit_class": {
            "orbit_class_type": "APO",
            "orbit_class_description": "Near-Earth asteroid orbits which cross the Earth’s orbit similar to that of 1862 Apollo",
            "orbit_class_range": "a (semi-major axis) > 1.0 AU; q (perihelion) < 1.017 AU"
        }
    },
    "is_sentry_object": false
}